DMSP 5D-3 F16 (USA 172) 
1 28054U 03048A   26058.81534816  .00000151  00000+0  10235-3 0  9991
2 28054  99.0002  81.8677 0008219  97.2300  15.2126 14.14457617154028
METEOSAT-9 (MSG-2)      
1 28912U 05049B   26058.60200020  .00000111  00000+0  00000+0 0  9992
2 28912   9.1136  55.2279 0002093 216.3463 148.2299  1.00274551  5907
DMSP 5D-3 F17 (USA 191) 
1 29522U 06050A   26058.77821054  .00000183  00000+0  11721-3 0  9992
2 29522  98.7411  67.5751 0010326  15.0730 345.0749 14.14958509996946
FENGYUN 3A              
1 32958U 08026A   26058.79686718  .00000100  00000+0  67686-4 0  9993
2 32958  98.6784   1.7375 0009849  83.6730 276.5568 14.19542686919881
GOES 14                 
1 35491U 09033A   26058.77607789  .00000115  00000+0  00000+0 0  9994
2 35491   1.4064  84.4859 0002030 289.5189 267.2835  1.00121745  5496
DMSP 5D-3 F18 (USA 210) 
1 35951U 09057A   26058.81167523  .00000267  00000+0  16162-3 0  9991
2 35951  98.8946  39.8752 0010605 196.7559 163.3265 14.14828442844120
EWS-G2 (GOES 15)        
1 36411U 10008A   26058.84649604  .00000004  00000+0  00000+0 0  9998
2 36411   0.9976  85.2435 0001446  29.1735  51.5109  1.00268650 58548
COMS 1                  
1 36744U 10032A   26058.72984022 -.00000360  00000+0  00000+0 0  9993
2 36744   4.5239  76.9402 0001042 269.0496 202.4439  1.00269227 49994
FENGYUN 3B              
1 37214U 10059A   26058.83991630  .00000248  00000+0  15159-3 0  9999
2 37214  98.9795 104.3175 0022805 134.9663 334.9607 14.14814959791966
SUOMI NPP               
1 37849U 11061A   26058.80486956  .00000094  00000+0  65462-4 0  9996
2 37849  98.7856   0.4868 0000567 319.2349  40.8785 14.19540284742925
METEOSAT-10 (MSG-3)     
1 38552U 12035B   26058.73569104 -.00000020  00000+0  00000+0 0  9991
2 38552   4.4123  61.4804 0002441 287.2125  73.9066  1.00276033 49758
METOP-B                 
1 38771U 12049A   26058.80147781  .00000118  00000+0  73764-4 0  9999
2 38771  98.6664 112.4091 0001345 318.8215  41.2861 14.21440832697728
INSAT-3D                
1 39216U 13038B   26058.82120672 -.00000356  00000+0  00000+0 0  9998
2 39216   1.6432  83.9766 0002250 230.9844 267.7871  1.00270346 45984
FENGYUN 3C              
1 39260U 13052A   26058.85202506  .00000134  00000+0  89489-4 0  9999
2 39260  98.4875  37.8115 0014354 342.6786  17.3898 14.15725016643091
METEOR-M 2              
1 40069U 14037A   26058.89891404  .00000052  00000+0  42941-4 0  9998
2 40069  98.5008  38.5717 0005936   6.1753 353.9497 14.21423963603797
HIMAWARI-8              
1 40267U 14060A   26058.82254265 -.00000292  00000+0  00000+0 0  9997
2 40267   0.0104 129.3743 0001031 165.9426 299.0911  1.00270754 41667
FENGYUN 2G              
1 40367U 14090A   26058.54141991 -.00000318  00000+0  00000+0 0  9990
2 40367   5.3602  74.1447 0002151 154.1777 223.5582  1.00276222 40908
METEOSAT-11 (MSG-4)     
1 40732U 15034A   26058.73751104  .00000046  00000+0  00000+0 0  9996
2 40732   2.9258  71.7113 0001801 269.9965  90.8504  1.00264622  6117
ELEKTRO-L 2             
1 41105U 15074A   26058.87534538 -.00000133  00000+0  00000+0 0  9998
2 41105   6.4183  71.8666 0003508 232.9857 153.4656  1.00270679 37418
INSAT-3DR               
1 41752U 16054A   26058.83391485 -.00000093  00000+0  00000+0 0  9998
2 41752   0.0341  99.1758 0013568 181.8954 250.7555  1.00271851 34727
HIMAWARI-9              
1 41836U 16064A   26058.82254264 -.00000291  00000+0  00000+0 0  9994
2 41836   0.0262 213.8764 0001074 132.3839 248.2459  1.00273468 34110
GOES 16                 
1 41866U 16071A   26058.57227338 -.00000106  00000+0  00000+0 0  9994
2 41866   0.1432  90.7536 0002779 210.9688 316.9837  1.00271408 34003
FENGYUN 4A              
1 41882U 16077A   26058.84697959 -.00000374  00000+0  00000+0 0  9995
2 41882   2.0429  81.4777 0006410 133.8426  10.8318  1.00263685 33833
CYGFM05                 
1 41884U 16078A   26058.85806615  .00022894  00000+0  37341-3 0  9992
2 41884  34.9567 261.9240 0006478 198.4432 161.6057 15.51603570511737
CYGFM04                 
1 41885U 16078B   26058.80035086  .00073529  00000+0  10566-2 0  9994
2 41885  34.9317 234.7246 0005956 234.3299 125.6870 15.54871819511926
CYGFM02                 
1 41886U 16078C   26058.77924971  .00066887  00000+0  89791-3 0  9997
2 41886  34.9402 231.9678 0006938 231.9140 128.0958 15.56725234512060
CYGFM01                 
1 41887U 16078D   26058.75936633  .00023417  00000+0  37630-3 0  9991
2 41887  34.9397 264.4136 0006156 188.9110 171.1504 15.52015280511664
CYGFM08                 
1 41888U 16078E   26058.81318622  .00025234  00000+0  38410-3 0  9997
2 41888  34.9426 246.0553 0007800 215.2677 144.7531 15.53486750511915
CYGFM07                 
1 41890U 16078G   26058.78412602  .00026788  00000+0  39782-3 0  9997
2 41890  34.9441 234.7582 0006442 236.4648 123.5460 15.54165609511931
CYGFM03                 
1 41891U 16078H   26058.81936111  .00025978  00000+0  38770-3 0  9994
2 41891  34.9395 236.5037 0005622 221.0585 138.9715 15.54040422511910
FENGYUN 3D              
1 43010U 17072A   26058.91045251  .00000084  00000+0  61315-4 0  9994
2 43010  99.0008  31.4260 0001989  32.5369 327.5929 14.19711250429482
NOAA 20 (JPSS-1)        
1 43013U 17073A   26058.81948810  .00000075  00000+0  56493-4 0  9991
2 43013  98.7679 359.3055 0000747 150.1580 209.9639 14.19533114428955
GOES 17                 
1 43226U 18022A   26058.57522006 -.00000198  00000+0  00000+0 0  9995
2 43226   0.6551  87.6545 0002495 215.1825 332.1446  1.00270330 29320
FENGYUN 2H              
1 43491U 18050A   26058.89488356 -.00000143  00000+0  00000+0 0  9994
2 43491   2.7478  80.4085 0002103 172.9661 305.5390  1.00272584 28345
METOP-C                 
1 43689U 18087A   26058.75583442  .00000113  00000+0  71400-4 0  9993
2 43689  98.6788 120.2963 0002116 113.6798 246.4601 14.21493138379284
GEO-KOMPSAT-2A          
1 43823U 18100A   26058.85757463 -.00000360  00000+0  00000+0 0  9994
2 43823   0.0128  65.7538 0001172 330.5793 198.3183  1.00270941 26531
METEOR-M2 2             
1 44387U 19038A   26058.87011787  .00000133  00000+0  77217-4 0  9991
2 44387  98.9072  44.5873 0001386  21.6825 338.4412 14.24329136345738
ARKTIKA-M 1             
1 47719U 21016A   26057.83530105 -.00000162  00000+0  00000+0 0  9991
2 47719  63.2010  73.4350 7240849 269.4272  15.2104  2.00620804 36576
FENGYUN 3E              
1 49008U 21062A   26058.90707462  .00000044  00000+0  41383-4 0  9998
2 49008  98.7515  63.5307 0002540  60.4750 299.6679 14.19892447241076
GOES 18                 
1 51850U 22021A   26058.77980459  .00000080  00000+0  00000+0 0  9992
2 51850   0.0181  72.9917 0000579 303.0959 285.2263  1.00272392  5498
NOAA 21 (JPSS-2)        
1 54234U 22150A   26058.78382007  .00000079  00000+0  58305-4 0  9994
2 54234  98.7542 359.1640 0002382 124.3836 235.7565 14.19549048171024
METEOSAT-12 (MTG-I1)    
1 54743U 22170C   26058.73560439 -.00000023  00000+0  00000+0 0  9997
2 54743   0.7394  28.4365 0002055 276.5603 117.0539  1.00273642 11886
TIANMU-1 03             
1 55973U 23039A   26058.83387815  .00017335  00000+0  38490-3 0  9995
2 55973  97.5161 228.8231 0003925 129.4631 230.6965 15.43766278163944
TIANMU-1 04             
1 55974U 23039B   26058.85993134  .00017386  00000+0  38079-3 0  9994
2 55974  97.5093 228.0130 0004603 126.4410 233.7263 15.44168511163958
TIANMU-1 05             
1 55975U 23039C   26058.81008600  .00017669  00000+0  39305-3 0  9993
2 55975  97.5140 228.4535 0003568 147.4311 212.7158 15.43707485163922
TIANMU-1 06             
1 55976U 23039D   26058.85992559  .00017418  00000+0  38113-3 0  9991
2 55976  97.5151 229.0363 0003935 143.1213 217.0306 15.44199990163956
FENGYUN 3G              
1 56232U 23055A   26058.86132885  .00031394  00000+0  48220-3 0  9993
2 56232  49.9920 189.7477 0010607 329.6730  30.3622 15.53877665163010
METEOR-M2 3             
1 57166U 23091A   26058.84028236 -.00000001  00000+0  18569-4 0  9998
2 57166  98.6237 115.9857 0004952 121.6473 238.5189 14.24036407138955
TIANMU-1 07             
1 57399U 23101A   26058.96527638  .00007940  00000+0  28236-3 0  9990
2 57399  97.2753 112.1301 0004813 151.6019 208.5484 15.29239726144956
TIANMU-1 08             
1 57400U 23101B   26058.93535669  .00000401  00000+0  16726-4 0  9990
2 57400  97.2737 111.8796 0006136 153.4289 206.7267 15.29167017144945
TIANMU-1 09             
1 57401U 23101C   26057.67332883  .00000582  00000+0  23046-4 0  9997
2 57401  97.2697 110.1278 0005297 158.8074 201.3387 15.29285857144752
TIANMU-1 10             
1 57402U 23101D   26058.95119267  .00011906  00000+0  42296-3 0  9998
2 57402  97.2777 112.3087 0006594 161.3384 198.8099 15.29148161144945
FENGYUN 3F              
1 57490U 23111A   26058.82269990  .00000056  00000+0  46670-4 0  9996
2 57490  98.6949 130.8261 0001388  84.3172 275.8163 14.19916707133349
ARKTIKA-M 2             
1 58584U 23198A   26054.10731457  .00000190  00000+0  00000+0 0  9996
2 58584  63.2206 166.9971 6875515 267.8148  18.8510  2.00613706 16031
TIANMU-1 11             
1 58645U 23205A   26058.83771953  .00006062  00000+0  24025-3 0  9993
2 58645  97.3559  82.1494 0010134  40.6209 319.5784 15.25720888120844
TIANMU-1 12             
1 58646U 23205B   26058.86965174  .00007185  00000+0  28499-3 0  9993
2 58646  97.3547  81.9622 0007952  27.8285 332.3377 15.25642945120834
TIANMU-1 13             
1 58647U 23205C   26058.83528134  .00006522  00000+0  25861-3 0  9996
2 58647  97.3575  82.1630 0007630  10.1059 350.0331 15.25690997120821
TIANMU-1 14             
1 58648U 23205D   26058.88529038  .00006813  00000+0  27014-3 0  9991
2 58648  97.3509  81.4900 0008534  12.7709 347.3744 15.25668961120839
TIANMU-1 19             
1 58660U 23208A   26058.85238124  .00009997  00000+0  35110-3 0  9990
2 58660  97.4378 174.8317 0004585 357.7781   2.3438 15.29586716120605
TIANMU-1 20             
1 58661U 23208B   26058.84433380  .00009729  00000+0  32938-3 0  9999
2 58661  97.4317 175.3474 0006946   3.1743 356.9540 15.30776831120683
TIANMU-1 21             
1 58662U 23208C   26058.85563175  .00011706  00000+0  37223-3 0  9997
2 58662  97.4369 177.5963 0006656 356.6713   3.4484 15.32748566120800
TIANMU-1 22             
1 58663U 23208D   26058.86761454  .00009597  00000+0  34101-3 0  9996
2 58663  97.4373 174.8644 0003905  27.8239 332.3210 15.29220749120610
TIANMU-1 15             
1 58700U 24004A   26058.81744971  .00006258  00000+0  24860-3 0  9995
2 58700  97.4664 245.0701 0007465  23.9953 336.1631 15.25659668119096
TIANMU-1 16             
1 58701U 24004B   26058.86673449  .00007556  00000+0  29926-3 0  9992
2 58701  97.4605 244.4495 0005992  29.1393 331.0178 15.25694086119109
TIANMU-1 17             
1 58702U 24004C   26058.84929887  .00007217  00000+0  28570-3 0  9999
2 58702  97.4638 244.8811 0005209  32.1673 327.9882 15.25730567119097
TIANMU-1 18             
1 58703U 24004D   26058.83414174  .00006632  00000+0  26318-3 0  9995
2 58703  97.4655 245.0758 0004612  33.3136 326.8392 15.25682984119097
INSAT-3DS               
1 58990U 24033A   26058.85123028 -.00000172  00000+0  00000+0 0  9992
2 58990   0.0664 266.6066 0002276  82.8174 196.7626  1.00270477 45978
METEOR-M2 4             
1 59051U 24039A   26058.87150231  .00000040  00000+0  37554-4 0  9997
2 59051  98.6886  19.6187 0007954 121.1667 239.0292 14.22415368103724
GOES 19                 
1 60133U 24119A   26058.79202465 -.00000264  00000+0  00000+0 0  9997
2 60133   0.0430 306.7872 0000995  59.6226   1.1196  1.00270609  5860
FENGYUN 3H              
1 65815U 25219A   26058.81903226  .00000074  00000+0  55239-4 0  9994
2 65815  98.6672   1.7717 0001478  68.0320 292.1013 14.19929504 21866
